satname,norad_id,inclination_deg,eccentricity,mean_motion_rev_per_day,perigee_km,apogee_km,l1,l2
STARLINK-1008,44714,53.1572,0.0001567,15.31132694,471.35814291584575,473.50511112355343,1 44714U 19074B   26072.94943710  .00010573  00000+0  35820-3 0  9991,2 44714  53.1572 158.9400 0001567  82.1424 277.9755 15.31132694349522
STARLINK-1012,44718,53.1592,0.0001297,15.30484816,473.4760225830005,475.25356154786186,1 44718U 19074F   26073.51975703  .00020728  00000+0  70381-3 0  9990,2 44718  53.1592 156.3711 0001297  50.1804 309.9311 15.30484816349600
STARLINK-1017,44723,53.0542,0.0001722,15.24685648,490.5465434998159,492.9125255343033,1 44723U 19074L   26073.59159294  .00047311  00000+0  18904-2 0  9992,2 44723  53.0542 148.8361 0001722  44.3360 315.7775 15.24685648349712
STARLINK-1019,44724,53.041,4.25e-05,15.82852213,322.0944479351401,322.66399181382803,1 44724U 19074M   26073.91668981  .00239930  00000+0  10814-2 0  9999,2 44724  53.0410 110.3960 0000425 245.6231  96.9544 15.82852213  6088
STARLINK-1020,44725,53.1611,0.000133,15.30243312,474.17427201880855,475.9972292704797,1 44725U 19074N   26073.69812121  .00012851  00000+0  44466-3 0  9994,2 44725  53.1611 180.5847 0001330  72.2929 287.8217 15.30243312349276
STARLINK-1031,44736,53.0372,0.0005084,15.93438163,289.27839710394073,296.06127349407143,1 44736U 19074Z   26073.91668981  .00332903  53840-4  91646-3 0  9994,2 44736  53.0372  93.3389 0005084  27.4174   4.4882 15.93438163  6053
STARLINK-1036,44741,53.0506,0.0003965,15.57133659,393.2715008459081,398.6433577283324,1 44741U 19074AE  26073.94221819  .00132230  00000+0  17669-2 0  9996,2 44741  53.0506 163.0986 0003965 317.2882  42.7820 15.57133659349541
STARLINK-1039,44744,53.052,0.0002034,15.2225186,497.65116190965455,500.44880157382613,1 44744U 19074AH  26073.73745615  .00059946  00000+0  25661-2 0  9994,2 44744  53.0520 191.8858 0002034 199.5231 160.5688 15.22251860349124
STARLINK-1042,44747,53.0431,0.0001815,15.50072167,415.28193840421955,417.74839714112113,1 44747U 19074AL  26073.42502459  .00028977  00000+0  51314-3 0  9995,2 44747  53.0431  72.0698 0001815 110.7592 249.3610 15.50072167350801
STARLINK-1043,44748,53.0517,0.0002197,15.5405819,403.4015059236617,406.3819687508476,1 44748U 19074AM  26073.54608234  .00062956  00000+0  95431-3 0  9990,2 44748  53.0517 171.0618 0002197  79.4207 280.7050 15.54058190349402
STARLINK-1046,44751,53.0531,0.0004133,15.44049267,431.3575184671172,436.9885739513138,1 44751U 19074AQ  26073.72450939  .00044118  00000+0  95465-3 0  9998,2 44751  53.0531 186.9174 0004133 194.8031 165.2854 15.44049267349192
STARLINK-1047,44752,53.069,0.0001666,15.32708058,466.5961513154725,468.8771964236057,1 44752U 19074AR  26073.84349820  .00011033  00000+0  35546-3 0  9992,2 44752  53.0690 121.9287 0001666 231.7945 128.2906 15.32708058350136
STARLINK-1048,44753,53.0526,0.0001261,15.54512527,402.71485024870253,404.4251967600303,1 44753U 19074AS  26073.92374641  .00095049  00000+0  14079-2 0  9997,2 44753  53.0526 143.5781 0001261  13.3218 346.7825 15.54512527349810
STARLINK-1053,44758,53.0261,0.0006655,15.95671722,282.0080805369889,290.87863699450645,1 44758U 19074AX  26073.91668981  .00509290  11727-3  12393-2 0  9991,2 44758  53.0261  56.6586 0006655  86.6270 108.6452 15.95671722  6056
STARLINK-1063,44768,53.1592,0.0001641,15.30108959,474.3622352288139,476.61159459768714,1 44768U 19074BH  26073.84669597 -.00763810  00000+0 -27810-1 0  9997,2 44768  53.1592 195.4385 0001641  83.7372 276.3816 15.30108959349104
STARLINK-1067,44771,53.0502,0.0004687,15.58356001,389.24130272790444,395.58801785426203,1 44771U 19074BL  26073.69790241  .00078463  00000+0  10108-2 0  9999,2 44771  53.0502 179.8544 0004687 348.5462  11.5442 15.58356001349293
STARLINK-1068,44772,53.0468,0.0003326,15.64824863,371.49682274544466,375.98817298742415,1 44772U 19074BM  26073.92511932  .00062983  00000+0  63445-3 0  9997,2 44772  53.0468 154.2179 0003326 325.2794  34.8003 15.64824863349660
STARLINK-1114,44927,53.0501,0.0007727,15.51267608,407.77645007181127,418.2715102505517,1 44927U 20001P   26073.89923831  .00075445  00000+0  12597-2 0  9990,2 44927  53.0501 304.3381 0007727 139.1094 221.0495 15.51267608340904
STARLINK-1123,44930,53.1511,0.0001287,15.28602989,479.1049667682373,480.87024804218345,1 44930U 20001S   26073.86853295  .00042142  00000+0  14986-2 0  9999,2 44930  53.1511 321.1161 0001287  56.2884 303.8238 15.28602989340660
STARLINK-1094,44941,53.1598,0.0001331,15.30197335,474.31084442095744,476.1352088600488,1 44941U 20001AD  26073.90865906  .00001834  00000+0  74029-4 0  9997,2 44941  53.1598 295.3222 0001331  95.2016 264.9136 15.30197335341030
STARLINK-1122,44949,53.1605,0.0001465,15.3020328,474.2012613046154,476.20929059146874,1 44949U 20001AM  26073.93499295 -.00000743  00000+0 -12939-4 0  9994,2 44949  53.1605 295.2446 0001465  92.2333 267.8836 15.30203280341037
STARLINK-1080,44961,53.0511,0.0006611,15.48222051,417.43161338668415,426.42265818702253,1 44961U 20001AZ  26073.91134658  .00086466  00000+0  16042-2 0  9996,2 44961  53.0511 263.2279 0006611 138.1381 222.0133 15.48222051341484
STARLINK-1090,44968,53.1506,0.0002206,15.28460785,478.8999793543344,481.9259716035167,1 44968U 20001BG  26073.91668981  .01158198  00000+0  38018-1 0  9993,2 44968  53.1506 282.1842 0002206  74.4407   0.6462 15.28460785  5780
STARLINK-1132,45044,53.1554,0.0003859,15.43955438,431.8200641668618,437.0780180733982,1 45044U 20006A   26073.83688473  .00039737  00000+0  86407-3 0  9996,2 45044  53.1554 229.5507 0003859 223.3856 136.6847 15.43955438337720
STARLINK-1131,45047,53.1589,0.0001177,15.3021829,474.3538262091042,475.9670924310294,1 45047U 20006D   26073.89114682 -.00002560  00000+0 -74304-4 0  9991,2 45047  53.1589 256.8153 0001177 106.5901 253.5230 15.30218290337342
STARLINK-1134,45048,53.0314,0.0007238,15.44685661,427.37245606480064,437.2312473465299,1 45048U 20006E   26073.67521189  .00100557  00000+0  21015-2 0  9994,2 45048  53.0314 214.5947 0007238 197.1210 162.9552 15.44685661337911
STARLINK-1156,45054,53.1589,0.0001194,15.3021115,474.3634914692184,476.0000639933396,1 45054U 20006L   26073.91749020  .00001788  00000+0  72458-4 0  9999,2 45054  53.1589 256.7095 0001194  87.0228 273.0910 15.30211150337348
STARLINK-1159,45057,53.0428,2.54e-05,15.83664602,319.9173997387179,320.257669545078,1 45057U 20006P   26074.00002315  .00193453  00000+0  84432-3 0  9997,2 45057  53.0428 208.0145 0000254 113.8856 257.6860 15.83664602  6043
STARLINK-1166,45060,53.0512,0.000346,15.46245273,425.3667127077888,430.0763668173031,1 45060U 20006S   26073.94359639  .00087821  00000+0  17452-2 0  9995,2 45060  53.0512 247.6410 0003460 170.8110 189.2960 15.46245273337476
STARLINK-1169,45061,53.1581,0.0001156,15.30195903,474.4350534367768,476.01955126348,1 45061U 20006T   26073.81952783  .00002241  00000+0  87778-4 0  9994,2 45061  53.1581 257.1659 0001156  88.6729 271.4405 15.30195903337337
STARLINK-1171,45062,53.0437,0.0001521,15.64151872,374.6518098706174,376.70632071767886,1 45062U 20006U   26074.00002315  .00072204  00000+0  74539-3 0  9990,2 45062  53.0437 223.4351 0001521  17.8035 261.2271 15.64151872  5932
STARLINK-1133,45064,53.1602,0.0001121,15.30187199,474.4850261127449,476.0215562160229,1 45064U 20006W   26073.82531542 -.00003044  00000+0 -90737-4 0  9997,2 45064  53.1602 233.9424 0001121 103.8377 256.2749 15.30187199337663
STARLINK-1167,45071,53.1607,0.0001194,15.29477306,476.5552050742699,478.19230104209964,1 45071U 20006AD  26073.92127854  .00014069  00000+0  49711-3 0  9995,2 45071  53.1607 233.5792 0001194  80.0711 280.0424 15.29477306337674
STARLINK-1168,45072,53.1591,0.0001127,15.29360836,476.9491521927757,478.49446276798244,1 45072U 20006AE  26073.73515630  .00001103  00000+0  50546-4 0  9992,2 45072  53.1591 234.5051 0001127  76.0244 284.0882 15.29360836337646
STARLINK-1172,45074,53.1587,0.0001252,15.30370811,473.8471301681411,475.56308183148485,1 45074U 20006AG  26073.86724368  .00018657  00000+0  63710-3 0  9996,2 45074  53.1587 233.7704 0001252  90.1477 269.9668 15.30370811337665
STARLINK-1153,45080,53.1612,0.0001044,15.29464934,476.6950037829656,478.1264421475207,1 45080U 20006AN  26073.70969282  .00019555  00000+0  68593-3 0  9994,2 45080  53.1612 234.4788 0001044  66.5774 293.5336 15.29464934337648
STARLINK-1151,45081,53.0522,0.0001821,15.66068287,368.9392618781949,371.39699460590055,1 45081U 20006AP  26073.67872062  .00083970  00000+0  80127-3 0  9999,2 45081  53.0522 215.2796 0001821  15.4110 344.6960 15.66068287337906
STARLINK-1185,45087,53.1605,0.0001218,15.33016423,465.98489956816593,467.6523307560192,1 45087U 20006AV  26073.67051123  .00023051  00000+0  72200-3 0  9999,2 45087  53.1605 219.1984 0001218  92.6705 267.4436 15.33016423337857
STARLINK-1183,45088,53.1597,0.0001197,15.30186112,474.43618559126935,476.07688800397864,1 45088U 20006AW  26073.71672719 -.00001392  00000+0 -34912-4 0  9990,2 45088  53.1597 219.2300 0001197  91.5955 268.5183 15.30186112337853
STARLINK-1152,45096,53.0374,0.0002973,15.39276279,446.21870178069275,450.2776704123453,1 45096U 20006BE  26073.53380154  .00083390  00000+0  20951-2 0  9990,2 45096  53.0374 183.6223 0002973 240.1039 119.9669 15.39276279338335
STARLINK-1184,45098,53.053,0.0004867,15.10556737,531.1366001420693,537.8653619528204,1 45098U 20006BG  26073.82763877  .00029134  00000+0  17560-2 0  9999,2 45098  53.0530 222.2104 0004867 145.6594 214.4712 15.10556737337819
STARLINK-1193,45100,53.0508,0.000306,15.56863828,394.6670048568694,398.81322965262916,1 45100U 20006BJ  26073.65924262  .00136167  00000+0  18370-2 0  9996,2 45100  53.0508 206.3573 0003060   1.9286 358.1736 15.56863828338025
STARLINK-1143,45179,53.0463,0.0007187,15.64078237,371.036918261957,380.7451581640844,1 45179U 20012B   26073.93547896  .00133495  00000+0  13657-2 0  9998,2 45179  53.0463 304.2197 0007187 117.8876 242.2867 15.64078237336743
